[{"OBJECT_NAME":"STARLINK-3257","OBJECT_ID":"2021-125AZ","EPOCH":"2025-09-22T05:47:36.204000","MEAN_MOTION":15.08844469,"ECCENTRICITY":0.00014008,"INCLINATION":53.2161,"RA_OF_ASC_NODE":275.4022,"ARG_OF_PERICENTER":91.297,"MEAN_ANOMALY":268.8182,"EPHEMERIS_TYPE":0,"CLASSIFICATION_TYPE":"U","NORAD_CAT_ID":50203,"ELEMENT_SET_NO":999,"REV_AT_EPOCH":21136,"BSTAR":2.2467208e-5,"MEAN_MOTION_DOT":7.0e-7,"MEAN_MOTION_DDOT":0},{"OBJECT_NAME":"STARLINK-3254","OBJECT_ID":"2021-125BA","EPOCH":"2025-09-22T06:45:52.933824","MEAN_MOTION":15.08843951,"ECCENTRICITY":0.00010227,"INCLINATION":53.2156,"RA_OF_ASC_NODE":275.1442,"ARG_OF_PERICENTER":82.7947,"MEAN_ANOMALY":277.3162,"EPHEMERIS_TYPE":0,"CLASSIFICATION_TYPE":"U","NORAD_CAT_ID":50204,"ELEMENT_SET_NO":999,"REV_AT_EPOCH":21136,"BSTAR":0.00014592636,"MEAN_MOTION_DOT":2.036e-5,"MEAN_MOTION_DDOT":0},{"OBJECT_NAME":"STARLINK-3260","OBJECT_ID":"2021-125BB","EPOCH":"2025-09-22T05:19:46.282080","MEAN_MOTION":15.08856256,"ECCENTRICITY":0.00013601,"INCLINATION":53.216,"RA_OF_ASC_NODE":245.4015,"ARG_OF_PERICENTER":87.315,"MEAN_ANOMALY":272.7997,"EPHEMERIS_TYPE":0,"CLASSIFICATION_TYPE":"U","NORAD_CAT_ID":50205,"ELEMENT_SET_NO":999,"REV_AT_EPOCH":21172,"BSTAR":0.0001649369,"MEAN_MOTION_DOT":2.339e-5,"MEAN_MOTION_DDOT":0},{"OBJECT_NAME":"STARLINK-3258","OBJECT_ID":"2021-125BC","EPOCH":"2025-09-22T06:35:16.177920","MEAN_MOTION":15.08855632,"ECCENTRICITY":9.962e-5,"INCLINATION":53.2171,"RA_OF_ASC_NODE":275.0612,"ARG_OF_PERICENTER":82.5422,"MEAN_ANOMALY":277.5684,"EPHEMERIS_TYPE":0,"CLASSIFICATION_TYPE":"U","NORAD_CAT_ID":50206,"ELEMENT_SET_NO":999,"REV_AT_EPOCH":20923,"BSTAR":0.00012106138,"MEAN_MOTION_DOT":1.64e-5,"MEAN_MOTION_DDOT":0},{"OBJECT_NAME":"STARLINK-3262","OBJECT_ID":"2021-125BD","EPOCH":"2025-09-22T06:55:06.241152","MEAN_MOTION":15.0884578,"ECCENTRICITY":0.00015403,"INCLINATION":53.2161,"RA_OF_ASC_NODE":275.1059,"ARG_OF_PERICENTER":83.9886,"MEAN_ANOMALY":276.1281,"EPHEMERIS_TYPE":0,"CLASSIFICATION_TYPE":"U","NORAD_CAT_ID":50207,"ELEMENT_SET_NO":999,"REV_AT_EPOCH":20930,"BSTAR":4.611674e-6,"MEAN_MOTION_DOT":-2.15e-6,"MEAN_MOTION_DDOT":0},{"OBJECT_NAME":"STARLINK-3323","OBJECT_ID":"2022-001B","EPOCH":"2025-09-22T02:35:26.565504","MEAN_MOTION":15.08837801,"ECCENTRICITY":0.00014419,"INCLINATION":53.2182,"RA_OF_ASC_NODE":195.9146,"ARG_OF_PERICENTER":94.714,"MEAN_ANOMALY":265.4017,"EPHEMERIS_TYPE":0,"CLASSIFICATION_TYPE":"U","NORAD_CAT_ID":50804,"ELEMENT_SET_NO":999,"REV_AT_EPOCH":20509,"BSTAR":5.4239238e-5,"MEAN_MOTION_DOT":5.75e-6,"MEAN_MOTION_DDOT":0},{"OBJECT_NAME":"STARLINK-3333","OBJECT_ID":"2022-001C","EPOCH":"2025-09-22T02:30:08.432928","MEAN_MOTION":15.08837677,"ECCENTRICITY":0.00013583,"INCLINATION":53.2168,"RA_OF_ASC_NODE":195.9285,"ARG_OF_PERICENTER":89.8332,"MEAN_ANOMALY":270.2816,"EPHEMERIS_TYPE":0,"CLASSIFICATION_TYPE":"U","NORAD_CAT_ID":50805,"ELEMENT_SET_NO":999,"REV_AT_EPOCH":20509,"BSTAR":7.2994669e-5,"MEAN_MOTION_DOT":8.74e-6,"MEAN_MOTION_DDOT":0},{"OBJECT_NAME":"STARLINK-3335","OBJECT_ID":"2022-001D","EPOCH":"2025-09-22T02:24:50.461920","MEAN_MOTION":15.08842046,"ECCENTRICITY":0.00013164,"INCLINATION":53.2173,"RA_OF_ASC_NODE":195.9474,"ARG_OF_PERICENTER":97.4448,"MEAN_ANOMALY":262.6694,"EPHEMERIS_TYPE":0,"CLASSIFICATION_TYPE":"U","NORAD_CAT_ID":50806,"ELEMENT_SET_NO":999,"REV_AT_EPOCH":20509,"BSTAR":4.8822911e-5,"MEAN_MOTION_DOT":4.89e-6,"MEAN_MOTION_DDOT":0},{"OBJECT_NAME":"STARLINK-3355","OBJECT_ID":"2022-001F","EPOCH":"2025-09-22T05:25:00.646752","MEAN_MOTION":15.08842481,"ECCENTRICITY":0.000129,"INCLINATION":53.217,"RA_OF_ASC_NODE":195.3831,"ARG_OF_PERICENTER":96.6051,"MEAN_ANOMALY":263.5088,"EPHEMERIS_TYPE":0,"CLASSIFICATION_TYPE":"U","NORAD_CAT_ID":50808,"ELEMENT_SET_NO":999,"REV_AT_EPOCH":20511,"BSTAR":2.013188e-5,"MEAN_MOTION_DOT":3.3e-7,"MEAN_MOTION_DDOT":0},{"OBJECT_NAME":"STARLINK-3232","OBJECT_ID":"2022-001G","EPOCH":"2025-09-22T05:30:18.459648","MEAN_MOTION":15.08855468,"ECCENTRICITY":0.00017138,"INCLINATION":53.2162,"RA_OF_ASC_NODE":195.3692,"ARG_OF_PERICENTER":93.5627,"MEAN_ANOMALY":266.5562,"EPHEMERIS_TYPE":0,"CLASSIFICATION_TYPE":"U","NORAD_CAT_ID":50809,"ELEMENT_SET_NO":999,"REV_AT_EPOCH":20511,"BSTAR":-0.00014058245,"MEAN_MOTION_DOT":-2.526e-5,"MEAN_MOTION_DDOT":0},{"OBJECT_NAME":"STARLINK-3338","OBJECT_ID":"2022-001K","EPOCH":"2025-09-22T04:32:02.757984","MEAN_MOTION":15.08834655,"ECCENTRICITY":0.00013382,"INCLINATION":53.218,"RA_OF_ASC_NODE":195.6575,"ARG_OF_PERICENTER":94.6662,"MEAN_ANOMALY":265.4483,"EPHEMERIS_TYPE":0,"CLASSIFICATION_TYPE":"U","NORAD_CAT_ID":50812,"ELEMENT_SET_NO":999,"REV_AT_EPOCH":20510,"BSTAR":-2.308075e-6,"MEAN_MOTION_DOT":-3.25e-6,"MEAN_MOTION_DDOT":0},{"OBJECT_NAME":"STARLINK-3349","OBJECT_ID":"2022-001L","EPOCH":"2025-09-22T03:25:12.915840","MEAN_MOTION":15.21851628,"ECCENTRICITY":0.00058077,"INCLINATION":53.2163,"RA_OF_ASC_NODE":183.1876,"ARG_OF_PERICENTER":121.8325,"MEAN_ANOMALY":238.3239,"EPHEMERIS_TYPE":0,"CLASSIFICATION_TYPE":"U","NORAD_CAT_ID":50813,"ELEMENT_SET_NO":999,"REV_AT_EPOCH":20528,"BSTAR":0.0013550922,"MEAN_MOTION_DOT":0.00031011,"MEAN_MOTION_DDOT":0},{"OBJECT_NAME":"STARLINK-3324","OBJECT_ID":"2022-001M","EPOCH":"2025-09-22T03:00:36.322560","MEAN_MOTION":15.08840271,"ECCENTRICITY":0.00012731,"INCLINATION":53.2181,"RA_OF_ASC_NODE":205.8344,"ARG_OF_PERICENTER":91.4682,"MEAN_ANOMALY":268.6456,"EPHEMERIS_TYPE":0,"CLASSIFICATION_TYPE":"U","NORAD_CAT_ID":50814,"ELEMENT_SET_NO":999,"REV_AT_EPOCH":20496,"BSTAR":0.00016427484,"MEAN_MOTION_DOT":2.328e-5,"MEAN_MOTION_DDOT":0},{"OBJECT_NAME":"STARLINK-3234","OBJECT_ID":"2022-001N","EPOCH":"2025-09-22T03:16:30.435168","MEAN_MOTION":15.08840639,"ECCENTRICITY":0.00012966,"INCLINATION":53.2177,"RA_OF_ASC_NODE":205.7871,"ARG_OF_PERICENTER":97.1059,"MEAN_ANOMALY":263.008,"EPHEMERIS_TYPE":0,"CLASSIFICATION_TYPE":"U","NORAD_CAT_ID":50815,"ELEMENT_SET_NO":999,"REV_AT_EPOCH":20496,"BSTAR":-6.830139e-6,"MEAN_MOTION_DOT":-3.97e-6,"MEAN_MOTION_DDOT":0},{"OBJECT_NAME":"STARLINK-3342","OBJECT_ID":"2022-001P","EPOCH":"2025-09-22T05:44:53.223360","MEAN_MOTION":15.08841649,"ECCENTRICITY":0.00014652,"INCLINATION":53.2167,"RA_OF_ASC_NODE":205.3238,"ARG_OF_PERICENTER":90.439,"MEAN_ANOMALY":269.677,"EPHEMERIS_TYPE":0,"CLASSIFICATION_TYPE":"U","NORAD_CAT_ID":50816,"ELEMENT_SET_NO":999,"REV_AT_EPOCH":20497,"BSTAR":2.9070152e-5,"MEAN_MOTION_DOT":1.75e-6,"MEAN_MOTION_DDOT":0},{"OBJECT_NAME":"STARLINK-3341","OBJECT_ID":"2022-001Q","EPOCH":"2025-09-22T06:22:00.667200","MEAN_MOTION":15.08823705,"ECCENTRICITY":0.00010156,"INCLINATION":53.2152,"RA_OF_ASC_NODE":205.2056,"ARG_OF_PERICENTER":88.6041,"MEAN_ANOMALY":271.5068,"EPHEMERIS_TYPE":0,"CLASSIFICATION_TYPE":"U","NORAD_CAT_ID":50817,"ELEMENT_SET_NO":999,"REV_AT_EPOCH":20498,"BSTAR":-3.7939601e-5,"MEAN_MOTION_DOT":-8.91e-6,"MEAN_MOTION_DDOT":0},{"OBJECT_NAME":"STARLINK-3336","OBJECT_ID":"2022-001R","EPOCH":"2025-09-22T02:44:42.711936","MEAN_MOTION":15.08842952,"ECCENTRICITY":0.00015693,"INCLINATION":53.2168,"RA_OF_ASC_NODE":205.8836,"ARG_OF_PERICENTER":101.5477,"MEAN_ANOMALY":258.5691,"EPHEMERIS_TYPE":0,"CLASSIFICATION_TYPE":"U","NORAD_CAT_ID":50818,"ELEMENT_SET_NO":999,"REV_AT_EPOCH":20495,"BSTAR":4.8503721e-5,"MEAN_MOTION_DOT":4.84e-6,"MEAN_MOTION_DDOT":0},{"OBJECT_NAME":"STARLINK-3327","OBJECT_ID":"2022-001S","EPOCH":"2025-09-22T02:55:18.553728","MEAN_MOTION":15.08843426,"ECCENTRICITY":0.00015238,"INCLINATION":53.2156,"RA_OF_ASC_NODE":205.8501,"ARG_OF_PERICENTER":90.8857,"MEAN_ANOMALY":269.231,"EPHEMERIS_TYPE":0,"CLASSIFICATION_TYPE":"U","NORAD_CAT_ID":50819,"ELEMENT_SET_NO":999,"REV_AT_EPOCH":20496,"BSTAR":4.007103e-5,"MEAN_MOTION_DOT":3.5e-6,"MEAN_MOTION_DDOT":0},{"OBJECT_NAME":"STARLINK-3339","OBJECT_ID":"2022-001T","EPOCH":"2025-09-22T05:39:35.497728","MEAN_MOTION":15.08837578,"ECCENTRICITY":0.00013539,"INCLINATION":53.2181,"RA_OF_ASC_NODE":205.3373,"ARG_OF_PERICENTER":98.3596,"MEAN_ANOMALY":261.755,"EPHEMERIS_TYPE":0,"CLASSIFICATION_TYPE":"U","NORAD_CAT_ID":50820,"ELEMENT_SET_NO":999,"REV_AT_EPOCH":20497,"BSTAR":1.3473858e-5,"MEAN_MOTION_DOT":-7.3e-7,"MEAN_MOTION_DDOT":0},{"OBJECT_NAME":"STARLINK-3346","OBJECT_ID":"2022-001U","EPOCH":"2025-09-22T05:02:29.063904","MEAN_MOTION":15.08848359,"ECCENTRICITY":0.00014375,"INCLINATION":53.2174,"RA_OF_ASC_NODE":205.3418,"ARG_OF_PERICENTER":91.9654,"MEAN_ANOMALY":268.1503,"EPHEMERIS_TYPE":0,"CLASSIFICATION_TYPE":"U","NORAD_CAT_ID":50821,"ELEMENT_SET_NO":999,"REV_AT_EPOCH":20497,"BSTAR":9.6215108e-5,"MEAN_MOTION_DOT":1.244e-5,"MEAN_MOTION_DDOT":0},{"OBJECT_NAME":"STARLINK-3343","OBJECT_ID":"2022-001V","EPOCH":"2025-09-22T05:28:59.589408","MEAN_MOTION":15.08850858,"ECCENTRICITY":0.00015827,"INCLINATION":53.2169,"RA_OF_ASC_NODE":205.3724,"ARG_OF_PERICENTER":84.8386,"MEAN_ANOMALY":275.2787,"EPHEMERIS_TYPE":0,"CLASSIFICATION_TYPE":"U","NORAD_CAT_ID":50822,"ELEMENT_SET_NO":999,"REV_AT_EPOCH":20497,"BSTAR":-2.334657e-6,"MEAN_MOTION_DOT":-3.25e-6,"MEAN_MOTION_DDOT":0},{"OBJECT_NAME":"STARLINK-3334","OBJECT_ID":"2022-001W","EPOCH":"2025-09-22T01:30:31.205088","MEAN_MOTION":15.08842012,"ECCENTRICITY":0.00015099,"INCLINATION":53.2165,"RA_OF_ASC_NODE":206.1156,"ARG_OF_PERICENTER":97.7771,"MEAN_ANOMALY":262.3393,"EPHEMERIS_TYPE":0,"CLASSIFICATION_TYPE":"U","NORAD_CAT_ID":50823,"ELEMENT_SET_NO":999,"REV_AT_EPOCH":20495,"BSTAR":-1.4335168e-5,"MEAN_MOTION_DOT":-5.16e-6,"MEAN_MOTION_DDOT":0},{"OBJECT_NAME":"STARLINK-3332","OBJECT_ID":"2022-001Y","EPOCH":"2025-09-22T05:34:17.279616","MEAN_MOTION":15.08843355,"ECCENTRICITY":0.0001735,"INCLINATION":53.2164,"RA_OF_ASC_NODE":205.3544,"ARG_OF_PERICENTER":90.9042,"MEAN_ANOMALY":269.2149,"EPHEMERIS_TYPE":0,"CLASSIFICATION_TYPE":"U","NORAD_CAT_ID":50825,"ELEMENT_SET_NO":999,"REV_AT_EPOCH":20497,"BSTAR":7.7699292e-5,"MEAN_MOTION_DOT":9.49e-6,"MEAN_MOTION_DDOT":0}]
